[{"OBJECT_NAME":"HULIANWANG DIGUI-37","OBJECT_ID":"2025-159C","EPOCH":"2026-03-09T23:16:22.543968","MEAN_MOTION":13.24419852,"ECCENTRICITY":0.00013714,"INCLINATION":86.4936,"RA_OF_ASC_NODE":315.8693,"ARG_OF_PERICENTER":71.5408,"MEAN_ANOMALY":288.5875,"EPHEMERIS_TYPE":0,"CLASSIFICATION_TYPE":"U","NORAD_CAT_ID":64958,"ELEMENT_SET_NO":999,"REV_AT_EPOCH":2999,"BSTAR":5.5127962e-5,"MEAN_MOTION_DOT":3.8e-7,"MEAN_MOTION_DDOT":0},{"OBJECT_NAME":"SCOUT B R\/B","OBJECT_ID":"1965-063B","EPOCH":"2026-03-09T09:18:36.171360","MEAN_MOTION":11.78599895,"ECCENTRICITY":0.07867814,"INCLINATION":69.2331,"RA_OF_ASC_NODE":44.8229,"ARG_OF_PERICENTER":251.2539,"MEAN_ANOMALY":273.0411,"EPHEMERIS_TYPE":0,"CLASSIFICATION_TYPE":"U","NORAD_CAT_ID":1502,"ELEMENT_SET_NO":999,"REV_AT_EPOCH":60663,"BSTAR":-0.0001551122,"MEAN_MOTION_DOT":-5.7e-7,"MEAN_MOTION_DDOT":0}]
